{"type":"FeatureCollection","features":[{"type":"Feature","id":"AD","properties":{"code":"AD","name":"Andorra la Vella","country":"Andorra"},"geometry":{"type":"Point","coordinates":[1.526594,42.510753]}},{"type":"Feature","id":"AE","properties":{"code":"AE","name":"Abu Dhabi","country":"United Arab Emirates"},"geometry":{"type":"Point","coordinates":[54.366593,24.466684]}},{"type":"Feature","id":"AF","properties":{"code":"AF","name":"Kabul","country":"Afghanistan"},"geometry":{"type":"Point","coordinates":[69.181314,34.518636]}},{"type":"Feature","id":"AG","properties":{"code":"AG","name":"Saint John's","country":"Antigua and Barbuda"},"geometry":{"type":"Point","coordinates":[-61.850034,17.118036]}},{"type":"Feature","id":"AI","properties":{"code":"AI","name":"The Valley","country":"Anguilla"},"geometry":{"type":"Point","coordinates":[-63.057,18.215]}},{"type":"Feature","id":"AL","properties":{"code":"AL","name":"Tirana","country":"Albania"},"geometry":{"type":"Point","coordinates":[19.818883,41.327541]}},{"type":"Feature","id":"AM","properties":{"code":"AM","name":"Yerevan","country":"Armenia"},"geometry":{"type":"Point","coordinates":[44.511606,40.183097]}},{"type":"Feature","id":"AO","properties":{"code":"AO","name":"Luanda","country":"Angola"},"geometry":{"type":"Point","coordinates":[13.232481,-8.83634]}},{"type":"Feature","id":"AR","properties":{"code":"AR","name":"Buenos Aires","country":"Argentina"},"geometry":{"type":"Point","coordinates":[-58.432513,-34.610715]}},{"type":"Feature","id":"AS","properties":{"code":"AS","name":"Pago Pago","country":"American Samoa"},"geometry":{"type":"Point","coordinates":[-170.69,-14.278]}},{"type":"Feature","id":"AT","properties":{"code":"AT","name":"Vienna","country":"Austria"},"geometry":{"type":"Point","coordinates":[16.364693,48.201961]}},{"type":"Feature","id":"AU","properties":{"code":"AU","name":"Canberra","country":"Australia"},"geometry":{"type":"Point","coordinates":[149.129026,-35.283029]}},{"type":"Feature","id":"AW","properties":{"code":"AW","name":"Oranjestad","country":"Aruba"},"geometry":{"type":"Point","coordinates":[-70.027,12.524]}},{"type":"Feature","id":"AX","properties":{"code":"AX","name":"Mariehamn","country":"Åland Islands"},"geometry":{"type":"Point","coordinates":[19.945,60.1]}},{"type":"Feature","id":"AZ","properties":{"code":"AZ","name":"Baku","country":"Azerbaijan"},"geometry":{"type":"Point","coordinates":[49.860271,40.397218]}},{"type":"Feature","id":"BA","properties":{"code":"BA","name":"Sarajevo","country":"Bosnia and Herzegovina"},"geometry":{"type":"Point","coordinates":[18.383002,43.850022]}},{"type":"Feature","id":"BB","properties":{"code":"BB","name":"Bridgetown","country":"Barbados"},"geometry":{"type":"Point","coordinates":[-59.616527,13.102003]}},{"type":"Feature","id":"BD","properties":{"code":"BD","name":"Dhaka","country":"Bangladesh"},"geometry":{"type":"Point","coordinates":[90.406634,23.725006]}},{"type":"Feature","id":"BE","properties":{"code":"BE","name":"Brussels","country":"Belgium"},"geometry":{"type":"Point","coordinates":[4.331371,50.835263]}},{"type":"Feature","id":"BF","properties":{"code":"BF","name":"Ouagadougou","country":"Burkina Faso"},"geometry":{"type":"Point","coordinates":[-1.52667,12.372262]}},{"type":"Feature","id":"BG","properties":{"code":"BG","name":"Sofia","country":"Bulgaria"},"geometry":{"type":"Point","coordinates":[23.314708,42.685295]}},{"type":"Feature","id":"BH","properties":{"code":"BH","name":"Manama","country":"Bahrain"},"geometry":{"type":"Point","coordinates":[50.583052,26.236136]}},{"type":"Feature","id":"BI","properties":{"code":"BI","name":"Gitega","country":"Burundi"},"geometry":{"type":"Point","coordinates":[29.360006,-3.376087]}},{"type":"Feature","id":"BJ","properties":{"code":"BJ","name":"Porto-Novo","country":"Benin"},"geometry":{"type":"Point","coordinates":[2.616626,6.483311]}},{"type":"Feature","id":"BL","properties":{"code":"BL","name":"Gustavia","country":"Saint-Barthélemy"},"geometry":{"type":"Point","coordinates":[-62.85,17.896]}},{"type":"Feature","id":"BM","properties":{"code":"BM","name":"Hamilton","country":"Bermuda"},"geometry":{"type":"Point","coordinates":[-64.783937,32.29419]}},{"type":"Feature","id":"BN","properties":{"code":"BN","name":"Bandar Seri Begawan","country":"Brunei Darussalam"},"geometry":{"type":"Point","coordinates":[114.933284,4.883331]}},{"type":"Feature","id":"BO","properties":{"code":"BO","name":"Sucre","country":"Bolivia"},"geometry":{"type":"Point","coordinates":[-65.259516,-19.040971]}},{"type":"Feature","id":"BR","properties":{"code":"BR","name":"Brasília","country":"Brazil"},"geometry":{"type":"Point","coordinates":[-47.917998,-15.781394]}},{"type":"Feature","id":"BS","properties":{"code":"BS","name":"Nassau","country":"Bahamas"},"geometry":{"type":"Point","coordinates":[-77.350044,25.08339]}},{"type":"Feature","id":"BT","properties":{"code":"BT","name":"Thimphu","country":"Bhutan"},"geometry":{"type":"Point","coordinates":[89.639014,27.472986]}},{"type":"Feature","id":"BW","properties":{"code":"BW","name":"Gaborone","country":"Botswana"},"geometry":{"type":"Point","coordinates":[25.911948,-24.646314]}},{"type":"Feature","id":"BY","properties":{"code":"BY","name":"Minsk","country":"Belarus"},"geometry":{"type":"Point","coordinates":[27.564681,53.901923]}},{"type":"Feature","id":"BZ","properties":{"code":"BZ","name":"Belmopan","country":"Belize"},"geometry":{"type":"Point","coordinates":[-88.767073,17.252033]}},{"type":"Feature","id":"CA","properties":{"code":"CA","name":"Ottawa","country":"Canada"},"geometry":{"type":"Point","coordinates":[-75.701961,45.418643]}},{"type":"Feature","id":"CD","properties":{"code":"CD","name":"Kinshasa","country":"Democratic Republic of the Congo"},"geometry":{"type":"Point","coordinates":[15.313026,-4.327778]}},{"type":"Feature","id":"CF","properties":{"code":"CF","name":"Bangui","country":"Central African Republic"},"geometry":{"type":"Point","coordinates":[18.558288,4.366644]}},{"type":"Feature","id":"CG","properties":{"code":"CG","name":"Brazzaville","country":"Republic of the Congo"},"geometry":{"type":"Point","coordinates":[15.282744,-4.25724]}},{"type":"Feature","id":"CH","properties":{"code":"CH","name":"Bern","country":"Switzerland"},"geometry":{"type":"Point","coordinates":[7.466976,46.916683]}},{"type":"Feature","id":"CI","properties":{"code":"CI","name":"Yamoussoukro","country":"Côte d'Ivoire"},"geometry":{"type":"Point","coordinates":[-5.275503,6.818381]}},{"type":"Feature","id":"CK","properties":{"code":"CK","name":"Avarua","country":"Cook Islands"},"geometry":{"type":"Point","coordinates":[-159.776,-21.207]}},{"type":"Feature","id":"CL","properties":{"code":"CL","name":"Santiago","country":"Chile"},"geometry":{"type":"Point","coordinates":[-70.650504,-33.440205]}},{"type":"Feature","id":"CM","properties":{"code":"CM","name":"Yaounde","country":"Cameroon"},"geometry":{"type":"Point","coordinates":[11.514705,3.868647]}},{"type":"Feature","id":"CN","properties":{"code":"CN","name":"Beijing","country":"China"},"geometry":{"type":"Point","coordinates":[116.394201,39.90172]}},{"type":"Feature","id":"CO","properties":{"code":"CO","name":"Bogota","country":"Colombia"},"geometry":{"type":"Point","coordinates":[-74.08529,4.598369]}},{"type":"Feature","id":"CR","properties":{"code":"CR","name":"San Jose","country":"Costa Rica"},"geometry":{"type":"Point","coordinates":[-84.078814,9.930371]}},{"type":"Feature","id":"CU","properties":{"code":"CU","name":"Havana","country":"Cuba"},"geometry":{"type":"Point","coordinates":[-82.366128,23.133905]}},{"type":"Feature","id":"CV","properties":{"code":"CV","name":"Praia","country":"Republic of Cabo Verde"},"geometry":{"type":"Point","coordinates":[-23.516689,14.916698]}},{"type":"Feature","id":"CW","properties":{"code":"CW","name":"Willemstad","country":"Curaçao"},"geometry":{"type":"Point","coordinates":[-68.934,12.122]}},{"type":"Feature","id":"CY","properties":{"code":"CY","name":"Nicosia","country":"Cyprus"},"geometry":{"type":"Point","coordinates":[33.366635,35.166677]}},{"type":"Feature","id":"CZ","properties":{"code":"CZ","name":"Prague","country":"Czech Republic"},"geometry":{"type":"Point","coordinates":[14.422939,50.086967]}},{"type":"Feature","id":"DE","properties":{"code":"DE","name":"Berlin","country":"Germany"},"geometry":{"type":"Point","coordinates":[13.399603,52.523764]}},{"type":"Feature","id":"DJ","properties":{"code":"DJ","name":"Djibouti","country":"Djibouti"},"geometry":{"type":"Point","coordinates":[43.148002,11.595014]}},{"type":"Feature","id":"DK","properties":{"code":"DK","name":"Copenhagen","country":"Denmark"},"geometry":{"type":"Point","coordinates":[12.56154,55.68051]}},{"type":"Feature","id":"DM","properties":{"code":"DM","name":"Roseau","country":"Dominica"},"geometry":{"type":"Point","coordinates":[-61.387013,15.301016]}},{"type":"Feature","id":"DO","properties":{"code":"DO","name":"Santo Domingo","country":"Dominican Republic"},"geometry":{"type":"Point","coordinates":[-69.929742,18.470745]}},{"type":"Feature","id":"DZ","properties":{"code":"DZ","name":"Algiers","country":"Algeria"},"geometry":{"type":"Point","coordinates":[3.048607,36.765011]}},{"type":"Feature","id":"EC","properties":{"code":"EC","name":"Quito","country":"Ecuador"},"geometry":{"type":"Point","coordinates":[-78.501997,-0.213042]}},{"type":"Feature","id":"EE","properties":{"code":"EE","name":"Tallinn","country":"Estonia"},"geometry":{"type":"Point","coordinates":[24.728041,59.433877]}},{"type":"Feature","id":"EG","properties":{"code":"EG","name":"Cairo","country":"Egypt"},"geometry":{"type":"Point","coordinates":[31.248022,30.051906]}},{"type":"Feature","id":"EH","properties":{"code":"EH","name":"Bir Lehlou","country":"Western Sahara"},"geometry":{"type":"Point","coordinates":[-9.652522,26.119167]}},{"type":"Feature","id":"ER","properties":{"code":"ER","name":"Asmara","country":"Eritrea"},"geometry":{"type":"Point","coordinates":[38.933324,15.333339]}},{"type":"Feature","id":"ES","properties":{"code":"ES","name":"Madrid","country":"Spain"},"geometry":{"type":"Point","coordinates":[-3.685297,40.401972]}},{"type":"Feature","id":"ET","properties":{"code":"ET","name":"Addis Ababa","country":"Ethiopia"},"geometry":{"type":"Point","coordinates":[38.698059,9.035256]}},{"type":"Feature","id":"FI","properties":{"code":"FI","name":"Helsinki","country":"Finland"},"geometry":{"type":"Point","coordinates":[24.932457,60.163804]}},{"type":"Feature","id":"FJ","properties":{"code":"FJ","name":"Suva","country":"Fiji"},"geometry":{"type":"Point","coordinates":[178.441707,-18.133016]}},{"type":"Feature","id":"FK","properties":{"code":"FK","name":"Stanley","country":"Falkland Islands / Malvinas"},"geometry":{"type":"Point","coordinates":[-57.851,-51.696]}},{"type":"Feature","id":"FM","properties":{"code":"FM","name":"Palikir","country":"Federated States of Micronesia"},"geometry":{"type":"Point","coordinates":[158.149974,6.916644]}},{"type":"Feature","id":"FO","properties":{"code":"FO","name":"Tórshavn","country":"Faeroe Islands"},"geometry":{"type":"Point","coordinates":[-6.772,62.012]}},{"type":"Feature","id":"FR","properties":{"code":"FR","name":"Paris","country":"France"},"geometry":{"type":"Point","coordinates":[2.352992,48.858092]}},{"type":"Feature","id":"GA","properties":{"code":"GA","name":"Libreville","country":"Gabon"},"geometry":{"type":"Point","coordinates":[9.457965,0.385389]}},{"type":"Feature","id":"GB","properties":{"code":"GB","name":"London","country":"United Kingdom"},"geometry":{"type":"Point","coordinates":[-0.118668,51.501941]}},{"type":"Feature","id":"GD","properties":{"code":"GD","name":"Saint George's","country":"Grenada"},"geometry":{"type":"Point","coordinates":[-61.741643,12.052633]}},{"type":"Feature","id":"GE","properties":{"code":"GE","name":"Tbilisi","country":"Georgia"},"geometry":{"type":"Point","coordinates":[44.78885,41.726956]}},{"type":"Feature","id":"GG","properties":{"code":"GG","name":"Saint Peter Port","country":"Guernsey"},"geometry":{"type":"Point","coordinates":[-2.537,49.457]}},{"type":"Feature","id":"GH","properties":{"code":"GH","name":"Accra","country":"Ghana"},"geometry":{"type":"Point","coordinates":[-0.218662,5.55198]}},{"type":"Feature","id":"GL","properties":{"code":"GL","name":"Nuuk","country":"Greenland"},"geometry":{"type":"Point","coordinates":[-51.721,64.184]}},{"type":"Feature","id":"GM","properties":{"code":"GM","name":"Banjul","country":"The Gambia"},"geometry":{"type":"Point","coordinates":[-16.591701,13.453876]}},{"type":"Feature","id":"GN","properties":{"code":"GN","name":"Conakry","country":"Guinea"},"geometry":{"type":"Point","coordinates":[-13.682181,9.533469]}},{"type":"Feature","id":"GQ","properties":{"code":"GQ","name":"Malabo","country":"Equatorial Guinea"},"geometry":{"type":"Point","coordinates":[8.783278,3.750015]}},{"type":"Feature","id":"GR","properties":{"code":"GR","name":"Athens","country":"Greece"},"geometry":{"type":"Point","coordinates":[23.731375,37.985272]}},{"type":"Feature","id":"GT","properties":{"code":"GT","name":"Guatemala City","country":"Guatemala"},"geometry":{"type":"Point","coordinates":[-90.528911,14.623081]}},{"type":"Feature","id":"GU","properties":{"code":"GU","name":"Hagåtña","country":"Guam"},"geometry":{"type":"Point","coordinates":[144.749,13.474]}},{"type":"Feature","id":"GW","properties":{"code":"GW","name":"Bissau","country":"Guinea-Bissau"},"geometry":{"type":"Point","coordinates":[-15.598361,11.865024]}},{"type":"Feature","id":"GY","properties":{"code":"GY","name":"Georgetown","country":"Guyana"},"geometry":{"type":"Point","coordinates":[-58.167029,6.801974]}},{"type":"Feature","id":"HK","properties":{"code":"HK","name":"Hong Kong","country":"Hong Kong"},"geometry":{"type":"Point","coordinates":[114.169,22.319]}},{"type":"Feature","id":"HN","properties":{"code":"HN","name":"Tegucigalpa","country":"Honduras"},"geometry":{"type":"Point","coordinates":[-87.219475,14.103991]}},{"type":"Feature","id":"HR","properties":{"code":"HR","name":"Zagreb","country":"Croatia"},"geometry":{"type":"Point","coordinates":[15.999995,45.800007]}},{"type":"Feature","id":"HT","properties":{"code":"HT","name":"Port-au-Prince","country":"Haiti"},"geometry":{"type":"Point","coordinates":[-72.33798,18.54297]}},{"type":"Feature","id":"HU","properties":{"code":"HU","name":"Budapest","country":"Hungary"},"geometry":{"type":"Point","coordinates":[19.081375,47.501952]}},{"type":"Feature","id":"ID","properties":{"code":"ID","name":"Jakarta","country":"Indonesia"},"geometry":{"type":"Point","coordinates":[106.827492,-6.172472]}},{"type":"Feature","id":"IE","properties":{"code":"IE","name":"Dublin","country":"Ireland"},"geometry":{"type":"Point","coordinates":[-6.25698,53.346731]}},{"type":"Feature","id":"IL","properties":{"code":"IL","name":"Jerusalem","country":"Israel"},"geometry":{"type":"Point","coordinates":[35.206626,31.778408]}},{"type":"Feature","id":"IM","properties":{"code":"IM","name":"Douglas","country":"Isle of Man"},"geometry":{"type":"Point","coordinates":[-4.482,54.151]}},{"type":"Feature","id":"IN","properties":{"code":"IN","name":"New Delhi","country":"India"},"geometry":{"type":"Point","coordinates":[77.19998,28.600023]}},{"type":"Feature","id":"IQ","properties":{"code":"IQ","name":"Baghdad","country":"Iraq"},"geometry":{"type":"Point","coordinates":[44.391923,33.340594]}},{"type":"Feature","id":"IR","properties":{"code":"IR","name":"Tehran","country":"Iran"},"geometry":{"type":"Point","coordinates":[51.422398,35.673889]}},{"type":"Feature","id":"IS","properties":{"code":"IS","name":"Reykjavik","country":"Iceland"},"geometry":{"type":"Point","coordinates":[-21.936546,64.143459]}},{"type":"Feature","id":"IT","properties":{"code":"IT","name":"Rome","country":"Italy"},"geometry":{"type":"Point","coordinates":[12.481313,41.897902]}},{"type":"Feature","id":"JE","properties":{"code":"JE","name":"Saint Helier","country":"Jersey"},"geometry":{"type":"Point","coordinates":[-2.107,49.187]}},{"type":"Feature","id":"JM","properties":{"code":"JM","name":"Kingston","country":"Jamaica"},"geometry":{"type":"Point","coordinates":[-76.767434,17.977077]}},{"type":"Feature","id":"JO","properties":{"code":"JO","name":"Amman","country":"Jordan"},"geometry":{"type":"Point","coordinates":[35.931354,31.951971]}},{"type":"Feature","id":"JP","properties":{"code":"JP","name":"Tokyo","country":"Japan"},"geometry":{"type":"Point","coordinates":[139.749462,35.686963]}},{"type":"Feature","id":"KE","properties":{"code":"KE","name":"Nairobi","country":"Kenya"},"geometry":{"type":"Point","coordinates":[36.814711,-1.281401]}},{"type":"Feature","id":"KG","properties":{"code":"KG","name":"Bishkek","country":"Kyrgyzstan"},"geometry":{"type":"Point","coordinates":[74.583258,42.875025]}},{"type":"Feature","id":"KH","properties":{"code":"KH","name":"Phnom Penh","country":"Cambodia"},"geometry":{"type":"Point","coordinates":[104.914689,11.551976]}},{"type":"Feature","id":"KI","properties":{"code":"KI","name":"South Tarawa","country":"Kiribati"},"geometry":{"type":"Point","coordinates":[173.017571,1.338188]}},{"type":"Feature","id":"KM","properties":{"code":"KM","name":"Moroni","country":"Comoros"},"geometry":{"type":"Point","coordinates":[43.240244,-11.704158]}},{"type":"Feature","id":"KN","properties":{"code":"KN","name":"Basseterre","country":"Saint Kitts and Nevis"},"geometry":{"type":"Point","coordinates":[-62.717009,17.302031]}},{"type":"Feature","id":"KP","properties":{"code":"KP","name":"Pyongyang","country":"Dem. Rep. Korea"},"geometry":{"type":"Point","coordinates":[125.752745,39.021385]}},{"type":"Feature","id":"KR","properties":{"code":"KR","name":"Seoul","country":"Republic of Korea"},"geometry":{"type":"Point","coordinates":[126.997785,37.568295]}},{"type":"Feature","id":"KW","properties":{"code":"KW","name":"Kuwait City","country":"Kuwait"},"geometry":{"type":"Point","coordinates":[47.976355,29.371664]}},{"type":"Feature","id":"KY","properties":{"code":"KY","name":"George Town","country":"Cayman Islands"},"geometry":{"type":"Point","coordinates":[-81.386,19.302]}},{"type":"Feature","id":"KZ","properties":{"code":"KZ","name":"Astana","country":"Kazakhstan"},"geometry":{"type":"Point","coordinates":[71.427774,51.181125]}},{"type":"Feature","id":"LA","properties":{"code":"LA","name":"Vientiane","country":"Lao PDR"},"geometry":{"type":"Point","coordinates":[102.59998,17.966693]}},{"type":"Feature","id":"LB","properties":{"code":"LB","name":"Beirut","country":"Lebanon"},"geometry":{"type":"Point","coordinates":[35.507762,33.873921]}},{"type":"Feature","id":"LC","properties":{"code":"LC","name":"Castries","country":"Saint Lucia"},"geometry":{"type":"Point","coordinates":[-60.992875,14.007875]}},{"type":"Feature","id":"LI","properties":{"code":"LI","name":"Vaduz","country":"Liechtenstein"},"geometry":{"type":"Point","coordinates":[9.51667,47.133724]}},{"type":"Feature","id":"LK","properties":{"code":"LK","name":"Sri Jayawardenepura Kotte","country":"Sri Lanka"},"geometry":{"type":"Point","coordinates":[79.949993,6.900004]}},{"type":"Feature","id":"LR","properties":{"code":"LR","name":"Monrovia","country":"Liberia"},"geometry":{"type":"Point","coordinates":[-10.79966,6.314582]}},{"type":"Feature","id":"LS","properties":{"code":"LS","name":"Maseru","country":"Lesotho"},"geometry":{"type":"Point","coordinates":[27.483273,-29.316674]}},{"type":"Feature","id":"LT","properties":{"code":"LT","name":"Vilnius","country":"Lithuania"},"geometry":{"type":"Point","coordinates":[25.316635,54.683366]}},{"type":"Feature","id":"LU","properties":{"code":"LU","name":"Luxembourg City","country":"Luxembourg"},"geometry":{"type":"Point","coordinates":[6.130003,49.61166]}},{"type":"Feature","id":"LV","properties":{"code":"LV","name":"Riga","country":"Latvia"},"geometry":{"type":"Point","coordinates":[24.099965,56.950024]}},{"type":"Feature","id":"LY","properties":{"code":"LY","name":"Tripoli","country":"Libya"},"geometry":{"type":"Point","coordinates":[13.180012,32.8925]}},{"type":"Feature","id":"MA","properties":{"code":"MA","name":"Rabat","country":"Morocco"},"geometry":{"type":"Point","coordinates":[-6.836408,34.025307]}},{"type":"Feature","id":"MC","properties":{"code":"MC","name":"Monaco","country":"Monaco"},"geometry":{"type":"Point","coordinates":[7.406913,43.739646]}},{"type":"Feature","id":"MD","properties":{"code":"MD","name":"Chisinau","country":"Moldova"},"geometry":{"type":"Point","coordinates":[28.857711,47.005024]}},{"type":"Feature","id":"ME","properties":{"code":"ME","name":"Podgorica","country":"Montenegro"},"geometry":{"type":"Point","coordinates":[19.266307,42.465972]}},{"type":"Feature","id":"MF","properties":{"code":"MF","name":"Marigot","country":"Saint-Martin"},"geometry":{"type":"Point","coordinates":[-63.084,18.073]}},{"type":"Feature","id":"MG","properties":{"code":"MG","name":"Antananarivo","country":"Madagascar"},"geometry":{"type":"Point","coordinates":[47.514678,-18.914691]}},{"type":"Feature","id":"MH","properties":{"code":"MH","name":"Majuro","country":"Marshall Islands"},"geometry":{"type":"Point","coordinates":[171.38,7.103004]}},{"type":"Feature","id":"MK","properties":{"code":"MK","name":"Skopje","country":"North Macedonia"},"geometry":{"type":"Point","coordinates":[21.433461,42.000006]}},{"type":"Feature","id":"ML","properties":{"code":"ML","name":"Bamako","country":"Mali"},"geometry":{"type":"Point","coordinates":[-8.001985,12.65196]}},{"type":"Feature","id":"MM","properties":{"code":"MM","name":"Naypyidaw","country":"Myanmar"},"geometry":{"type":"Point","coordinates":[96.116673,19.768503]}},{"type":"Feature","id":"MN","properties":{"code":"MN","name":"Ulaanbaatar","country":"Mongolia"},"geometry":{"type":"Point","coordinates":[106.91467,47.918619]}},{"type":"Feature","id":"MO","properties":{"code":"MO","name":"Macau","country":"Macao"},"geometry":{"type":"Point","coordinates":[113.543,22.199]}},{"type":"Feature","id":"MP","properties":{"code":"MP","name":"Saipan","country":"Northern Mariana Islands"},"geometry":{"type":"Point","coordinates":[145.75,15.209]}},{"type":"Feature","id":"MR","properties":{"code":"MR","name":"Nouakchott","country":"Mauritania"},"geometry":{"type":"Point","coordinates":[-15.97534,18.086427]}},{"type":"Feature","id":"MS","properties":{"code":"MS","name":"Brades","country":"Montserrat"},"geometry":{"type":"Point","coordinates":[-62.213,16.706]}},{"type":"Feature","id":"MT","properties":{"code":"MT","name":"Valletta","country":"Malta"},"geometry":{"type":"Point","coordinates":[14.514711,35.899732]}},{"type":"Feature","id":"MU","properties":{"code":"MU","name":"Port Louis","country":"Mauritius"},"geometry":{"type":"Point","coordinates":[57.499994,-20.166639]}},{"type":"Feature","id":"MV","properties":{"code":"MV","name":"Male","country":"Maldives"},"geometry":{"type":"Point","coordinates":[73.508901,4.172037]}},{"type":"Feature","id":"MW","properties":{"code":"MW","name":"Lilongwe","country":"Malawi"},"geometry":{"type":"Point","coordinates":[33.783302,-13.983295]}},{"type":"Feature","id":"MX","properties":{"code":"MX","name":"Mexico City","country":"Mexico"},"geometry":{"type":"Point","coordinates":[-99.132934,19.444388]}},{"type":"Feature","id":"MY","properties":{"code":"MY","name":"Kuala Lumpur","country":"Malaysia"},"geometry":{"type":"Point","coordinates":[101.688699,3.139797]}},{"type":"Feature","id":"MZ","properties":{"code":"MZ","name":"Maputo","country":"Mozambique"},"geometry":{"type":"Point","coordinates":[32.587217,-25.953332]}},{"type":"Feature","id":"NA","properties":{"code":"NA","name":"Windhoek","country":"Namibia"},"geometry":{"type":"Point","coordinates":[17.083546,-22.570006]}},{"type":"Feature","id":"NC","properties":{"code":"NC","name":"Nouméa","country":"New Caledonia"},"geometry":{"type":"Point","coordinates":[166.458,-22.276]}},{"type":"Feature","id":"NE","properties":{"code":"NE","name":"Niamey","country":"Niger"},"geometry":{"type":"Point","coordinates":[2.11471,13.518652]}},{"type":"Feature","id":"NF","properties":{"code":"NF","name":"Kingston","country":"Norfolk Island"},"geometry":{"type":"Point","coordinates":[167.954,-29.055]}},{"type":"Feature","id":"NG","properties":{"code":"NG","name":"Abuja","country":"Nigeria"},"geometry":{"type":"Point","coordinates":[7.489505,9.05462]}},{"type":"Feature","id":"NI","properties":{"code":"NI","name":"Managua","country":"Nicaragua"},"geometry":{"type":"Point","coordinates":[-86.270437,12.154962]}},{"type":"Feature","id":"NL","properties":{"code":"NL","name":"Amsterdam","country":"Netherlands"},"geometry":{"type":"Point","coordinates":[4.914694,52.351914]}},{"type":"Feature","id":"NO","properties":{"code":"NO","name":"Oslo","country":"Norway"},"geometry":{"type":"Point","coordinates":[10.748033,59.918636]}},{"type":"Feature","id":"NP","properties":{"code":"NP","name":"Kathmandu","country":"Nepal"},"geometry":{"type":"Point","coordinates":[85.314696,27.718638]}},{"type":"Feature","id":"NR","properties":{"code":"NR","name":"Yaren","country":"Nauru"},"geometry":{"type":"Point","coordinates":[166.920867,-0.5477]}},{"type":"Feature","id":"NU","properties":{"code":"NU","name":"Alofi","country":"Niue"},"geometry":{"type":"Point","coordinates":[-169.918,-19.054]}},{"type":"Feature","id":"NZ","properties":{"code":"NZ","name":"Wellington","country":"New Zealand"},"geometry":{"type":"Point","coordinates":[174.777201,-41.292068]}},{"type":"Feature","id":"OM","properties":{"code":"OM","name":"Muscat","country":"Oman"},"geometry":{"type":"Point","coordinates":[58.378311,23.585179]}},{"type":"Feature","id":"PA","properties":{"code":"PA","name":"Panama City","country":"Panama"},"geometry":{"type":"Point","coordinates":[-79.534983,8.969963]}},{"type":"Feature","id":"PE","properties":{"code":"PE","name":"Lima","country":"Peru"},"geometry":{"type":"Point","coordinates":[-77.052008,-12.046067]}},{"type":"Feature","id":"PF","properties":{"code":"PF","name":"Papeete","country":"French Polynesia"},"geometry":{"type":"Point","coordinates":[-149.566,-17.539]}},{"type":"Feature","id":"PG","properties":{"code":"PG","name":"Port Moresby","country":"Papua New Guinea"},"geometry":{"type":"Point","coordinates":[147.192504,-9.464708]}},{"type":"Feature","id":"PH","properties":{"code":"PH","name":"Manila","country":"Philippines"},"geometry":{"type":"Point","coordinates":[120.980271,14.606105]}},{"type":"Feature","id":"PK","properties":{"code":"PK","name":"Islamabad","country":"Pakistan"},"geometry":{"type":"Point","coordinates":[73.08063,33.689368]}},{"type":"Feature","id":"PL","properties":{"code":"PL","name":"Warsaw","country":"Poland"},"geometry":{"type":"Point","coordinates":[21.005347,52.230872]}},{"type":"Feature","id":"PM","properties":{"code":"PM","name":"Saint-Pierre","country":"Saint Pierre and Miquelon"},"geometry":{"type":"Point","coordinates":[-56.171,46.781]}},{"type":"Feature","id":"PN","properties":{"code":"PN","name":"Adamstown","country":"Pitcairn Islands"},"geometry":{"type":"Point","coordinates":[-130.101,-25.066]}},{"type":"Feature","id":"PR","properties":{"code":"PR","name":"San Juan","country":"Puerto Rico"},"geometry":{"type":"Point","coordinates":[-66.106,18.466]}},{"type":"Feature","id":"PS","properties":{"code":"PS","name":"Ramallah","country":"Palestine"},"geometry":{"type":"Point","coordinates":[35.203148,31.899644]}},{"type":"Feature","id":"PT","properties":{"code":"PT","name":"Lisbon","country":"Portugal"},"geometry":{"type":"Point","coordinates":[-9.146812,38.724669]}},{"type":"Feature","id":"PW","properties":{"code":"PW","name":"Ngerulmud","country":"Palau"},"geometry":{"type":"Point","coordinates":[134.626549,7.487396]}},{"type":"Feature","id":"PY","properties":{"code":"PY","name":"Asuncion","country":"Paraguay"},"geometry":{"type":"Point","coordinates":[-57.625834,-25.290671]}},{"type":"Feature","id":"QA","properties":{"code":"QA","name":"Doha","country":"Qatar"},"geometry":{"type":"Point","coordinates":[51.532968,25.286556]}},{"type":"Feature","id":"RO","properties":{"code":"RO","name":"Bucharest","country":"Romania"},"geometry":{"type":"Point","coordinates":[26.098001,44.435318]}},{"type":"Feature","id":"RS","properties":{"code":"RS","name":"Belgrade","country":"Serbia"},"geometry":{"type":"Point","coordinates":[20.466045,44.820591]}},{"type":"Feature","id":"RU","properties":{"code":"RU","name":"Moscow","country":"Russian Federation"},"geometry":{"type":"Point","coordinates":[37.613577,55.75411]}},{"type":"Feature","id":"RW","properties":{"code":"RW","name":"Kigali","country":"Rwanda"},"geometry":{"type":"Point","coordinates":[30.058586,-1.951644]}},{"type":"Feature","id":"SA","properties":{"code":"SA","name":"Riyadh","country":"Saudi Arabia"},"geometry":{"type":"Point","coordinates":[46.720487,24.634497]}},{"type":"Feature","id":"SB","properties":{"code":"SB","name":"Honiara","country":"Solomon Islands"},"geometry":{"type":"Point","coordinates":[159.949766,-9.437994]}},{"type":"Feature","id":"SC","properties":{"code":"SC","name":"Victoria","country":"Seychelles"},"geometry":{"type":"Point","coordinates":[55.44999,-4.616632]}},{"type":"Feature","id":"SD","properties":{"code":"SD","name":"Khartoum","country":"Sudan"},"geometry":{"type":"Point","coordinates":[32.532233,15.590024]}},{"type":"Feature","id":"SE","properties":{"code":"SE","name":"Stockholm","country":"Sweden"},"geometry":{"type":"Point","coordinates":[18.0663,59.324127]}},{"type":"Feature","id":"SG","properties":{"code":"SG","name":"Singapore","country":"Singapore"},"geometry":{"type":"Point","coordinates":[103.853875,1.294979]}},{"type":"Feature","id":"SH","properties":{"code":"SH","name":"Jamestown","country":"Saint Helena"},"geometry":{"type":"Point","coordinates":[-5.717,-15.925]}},{"type":"Feature","id":"SI","properties":{"code":"SI","name":"Ljubljana","country":"Slovenia"},"geometry":{"type":"Point","coordinates":[14.514969,46.055288]}},{"type":"Feature","id":"SK","properties":{"code":"SK","name":"Bratislava","country":"Slovakia"},"geometry":{"type":"Point","coordinates":[17.116981,48.150018]}},{"type":"Feature","id":"SL","properties":{"code":"SL","name":"Freetown","country":"Sierra Leone"},"geometry":{"type":"Point","coordinates":[-13.236162,8.471957]}},{"type":"Feature","id":"SM","properties":{"code":"SM","name":"San Marino","country":"San Marino"},"geometry":{"type":"Point","coordinates":[12.44177,43.936096]}},{"type":"Feature","id":"SN","properties":{"code":"SN","name":"Dakar","country":"Senegal"},"geometry":{"type":"Point","coordinates":[-17.475076,14.717778]}},{"type":"Feature","id":"SO","properties":{"code":"SO","name":"Mogadishu","country":"Somalia"},"geometry":{"type":"Point","coordinates":[45.364732,2.068627]}},{"type":"Feature","id":"SR","properties":{"code":"SR","name":"Paramaribo","country":"Suriname"},"geometry":{"type":"Point","coordinates":[-55.167031,5.83503]}},{"type":"Feature","id":"SS","properties":{"code":"SS","name":"Juba","country":"South Sudan"},"geometry":{"type":"Point","coordinates":[31.580026,4.829975]}},{"type":"Feature","id":"ST","properties":{"code":"ST","name":"Sao Tome","country":"São Tomé and Principe"},"geometry":{"type":"Point","coordinates":[6.72965,0.337466]}},{"type":"Feature","id":"SV","properties":{"code":"SV","name":"San Salvador","country":"El Salvador"},"geometry":{"type":"Point","coordinates":[-89.215576,13.70328]}},{"type":"Feature","id":"SX","properties":{"code":"SX","name":"Philipsburg","country":"Sint Maarten"},"geometry":{"type":"Point","coordinates":[-63.047,18.026]}},{"type":"Feature","id":"SY","properties":{"code":"SY","name":"Damascus","country":"Syria"},"geometry":{"type":"Point","coordinates":[36.29805,33.50198]}},{"type":"Feature","id":"SZ","properties":{"code":"SZ","name":"Mbabane","country":"Kingdom of eSwatini"},"geometry":{"type":"Point","coordinates":[31.133335,-26.316651]}},{"type":"Feature","id":"TC","properties":{"code":"TC","name":"Cockburn Town","country":"Turks and Caicos Islands"},"geometry":{"type":"Point","coordinates":[-71.141,21.461]}},{"type":"Feature","id":"TD","properties":{"code":"TD","name":"N'Djamena","country":"Chad"},"geometry":{"type":"Point","coordinates":[15.047202,12.115042]}},{"type":"Feature","id":"TG","properties":{"code":"TG","name":"Lome","country":"Togo"},"geometry":{"type":"Point","coordinates":[1.220811,6.133883]}},{"type":"Feature","id":"TH","properties":{"code":"TH","name":"Bangkok","country":"Thailand"},"geometry":{"type":"Point","coordinates":[100.514699,13.751945]}},{"type":"Feature","id":"TJ","properties":{"code":"TJ","name":"Dushanbe","country":"Tajikistan"},"geometry":{"type":"Point","coordinates":[68.773879,38.560035]}},{"type":"Feature","id":"TL","properties":{"code":"TL","name":"Dili","country":"Timor-Leste"},"geometry":{"type":"Point","coordinates":[125.579456,-8.559388]}},{"type":"Feature","id":"TM","properties":{"code":"TM","name":"Ashgabat","country":"Turkmenistan"},"geometry":{"type":"Point","coordinates":[58.383299,37.949995]}},{"type":"Feature","id":"TN","properties":{"code":"TN","name":"Tunis","country":"Tunisia"},"geometry":{"type":"Point","coordinates":[10.179678,36.802778]}},{"type":"Feature","id":"TO","properties":{"code":"TO","name":"Nuku'alofa","country":"Tonga"},"geometry":{"type":"Point","coordinates":[-175.220564,-21.138512]}},{"type":"Feature","id":"TR","properties":{"code":"TR","name":"Ankara","country":"Turkey"},"geometry":{"type":"Point","coordinates":[32.862446,39.929184]}},{"type":"Feature","id":"TT","properties":{"code":"TT","name":"Port of Spain","country":"Trinidad and Tobago"},"geometry":{"type":"Point","coordinates":[-61.517031,10.651997]}},{"type":"Feature","id":"TV","properties":{"code":"TV","name":"Funafuti","country":"Tuvalu"},"geometry":{"type":"Point","coordinates":[179.216647,-8.516652]}},{"type":"Feature","id":"TW","properties":{"code":"TW","name":"Taipei","country":"Taiwan"},"geometry":{"type":"Point","coordinates":[121.568333,25.035833]}},{"type":"Feature","id":"TZ","properties":{"code":"TZ","name":"Dodoma","country":"Tanzania"},"geometry":{"type":"Point","coordinates":[35.750004,-6.183306]}},{"type":"Feature","id":"UA","properties":{"code":"UA","name":"Kyiv","country":"Ukraine"},"geometry":{"type":"Point","coordinates":[30.514682,50.435313]}},{"type":"Feature","id":"UG","properties":{"code":"UG","name":"Kampala","country":"Uganda"},"geometry":{"type":"Point","coordinates":[32.581378,0.318605]}},{"type":"Feature","id":"US","properties":{"code":"US","name":"Washington, D.C.","country":"United States"},"geometry":{"type":"Point","coordinates":[-77.011364,38.901495]}},{"type":"Feature","id":"UY","properties":{"code":"UY","name":"Montevideo","country":"Uruguay"},"geometry":{"type":"Point","coordinates":[-56.186823,-34.905376]}},{"type":"Feature","id":"UZ","properties":{"code":"UZ","name":"Tashkent","country":"Uzbekistan"},"geometry":{"type":"Point","coordinates":[69.268823,41.303828]}},{"type":"Feature","id":"VA","properties":{"code":"VA","name":"Vatican City","country":"Vatican City"},"geometry":{"type":"Point","coordinates":[12.453387,41.903282]}},{"type":"Feature","id":"VC","properties":{"code":"VC","name":"Kingstown","country":"Saint Vincent and the Grenadines"},"geometry":{"type":"Point","coordinates":[-61.220236,13.155756]}},{"type":"Feature","id":"VE","properties":{"code":"VE","name":"Caracas","country":"Venezuela"},"geometry":{"type":"Point","coordinates":[-66.918983,10.502944]}},{"type":"Feature","id":"VG","properties":{"code":"VG","name":"Road Town","country":"British Virgin Islands"},"geometry":{"type":"Point","coordinates":[-64.623,18.431]}},{"type":"Feature","id":"VI","properties":{"code":"VI","name":"Charlotte Amalie","country":"United States Virgin Islands"},"geometry":{"type":"Point","coordinates":[-64.931,18.342]}},{"type":"Feature","id":"VN","properties":{"code":"VN","name":"Hanoi","country":"Vietnam"},"geometry":{"type":"Point","coordinates":[105.848068,21.035273]}},{"type":"Feature","id":"VU","properties":{"code":"VU","name":"Port Vila","country":"Vanuatu"},"geometry":{"type":"Point","coordinates":[168.316641,-17.73335]}},{"type":"Feature","id":"WF","properties":{"code":"WF","name":"Mata-Utu","country":"Wallis and Futuna Islands"},"geometry":{"type":"Point","coordinates":[-176.185,-13.283]}},{"type":"Feature","id":"WS","properties":{"code":"WS","name":"Apia","country":"Samoa"},"geometry":{"type":"Point","coordinates":[-171.768599,-13.835715]}},{"type":"Feature","id":"XK","properties":{"code":"XK","name":"Pristina","country":"Kosovo"},"geometry":{"type":"Point","coordinates":[21.166,42.667]}},{"type":"Feature","id":"YE","properties":{"code":"YE","name":"Sana'a","country":"Yemen"},"geometry":{"type":"Point","coordinates":[44.204648,15.356679]}},{"type":"Feature","id":"ZA","properties":{"code":"ZA","name":"Pretoria","country":"South Africa"},"geometry":{"type":"Point","coordinates":[28.227483,-25.704975]}},{"type":"Feature","id":"ZM","properties":{"code":"ZM","name":"Lusaka","country":"Zambia"},"geometry":{"type":"Point","coordinates":[28.281382,-15.414698]}},{"type":"Feature","id":"ZW","properties":{"code":"ZW","name":"Harare","country":"Zimbabwe"},"geometry":{"type":"Point","coordinates":[31.042764,-17.815844]}}]}
